#aV2007 10  1  0  0   .00000000      96 DD+AD WGS84 FIT  NGA
## 1447  86400.00000000   900.00000000 54374  .0000000000000
+   31     1  2  3  4  5  6  7  8  9 10 11 12 13 14 16 17 18
+         19 20 21 22 23 24 25 26 27 28 29 30 31 32  0  0  0
+          0  0  0  0  0  0  0  0  0  0  0  0  0  0  0  0  0
+          0  0  0  0  0  0  0  0  0  0  0  0  0  0  0  0  0
+          0  0  0  0  0  0  0  0  0  0  0  0  0  0  0  0  0
++         0  0  0  0  0  0  0  0  0  0  0  0  0  0  0  0  0
++         0  0  0  0  0  0  0  0  0  0  0  0  0  0  0  0  0
++         0  0  0  0  0  0  0  0  0  0  0  0  0  0  0  0  0
++         0  0  0  0  0  0  0  0  0  0  0  0  0  0  0  0  0
++         0  0  0  0  0  0  0  0  0  0  0  0  0  0  0  0  0
%c cc cc ccc ccc cccc cccc cccc cccc ccccc ccccc ccccc ccccc
%c cc cc ccc ccc cccc cccc cccc cccc ccccc ccccc ccccc ccccc
%f  0.0000000  0.000000000  0.00000000000  0.000000000000000
%f  0.0000000  0.000000000  0.00000000000  0.000000000000000
%i    0    0    0    0      0      0      0      0         0
%i    0    0    0    0      0      0      0      0         0
/*      NGA, ST. LOUIS,MO.                                  
/*   EPHEMERIS COMPUTED FROM  3 DAYS OF DATA                
/* CCCCCCCCCCCCCCCCCCCCCCCCCCCCCCCCCCCCCCCCCCCCCCCCCCCCCCCCC
/* CCCCCCCCCCCCCCCCCCCCCCCCCCCCCCCCCCCCCCCCCCCCCCCCCCCCCCCCC
*  2007 10  1  3  0   .00000000                                                 
P  1 -17119.930515  20226.756820   1096.219559    156.175111                    
V  1  -2178.332662   -432.957918 -32428.498887       .024478                    
P  2   9211.269750 -13662.691753  20579.857290    140.381510                    
V  2  26247.092993   4970.249221  -8675.019154       .027540                    
P  3  -8379.803574  23805.871800  -7918.642306    123.218499                    
V  3  -8637.187180   6196.051250  28937.545106       .053709                    
P  4  21042.376871  -7245.351871  14687.645185     -9.833392                    
V  4  18052.590540   5273.005819 -22789.163019      -.032486                    
P  5 -16117.517911 -19541.716433   7973.717656    433.732200                    
V  5  -1798.678532 -10776.536048 -28959.863401       .309220                    
P  6 -16237.036254  -3983.042131  20828.341510    241.792757                    
V  6  14898.398243 -21479.362351   7544.056848      -.037481                    
P  7 -17132.306355  -1985.822352  20548.127417    -72.995509                    
V  7  13791.760661 -21380.711757   9551.937800       .197927                    
P  8  25510.250375   -461.995305  -8302.106625   -124.739088                    
V  8   9699.476274   3686.513833  29546.299721      -.012973                    
P  9 -13518.139553 -14381.298793 -18476.052767     90.049441                    
V  9  22123.543689   1389.049675 -17685.503962       .017672                    
P 10   1096.703074 -23032.197611  12778.138704    -90.235289                    
V 10   7827.666703  14746.847417  25987.369950      -.161638                    
P 11  16344.758614  13043.273179 -16659.496175     24.332236                    
V 11 -21005.163732   3204.719085 -17917.690457       .003922                    
P 12 -11841.979247 -23553.414055   3616.819450    -57.970627                    
V 12    879.240121  -5136.548015 -31299.824624      -.013132                    
P 13  15547.447580   3097.321504  21200.868288    210.477399                    
V 13 -17387.273241  20768.071560   9691.697355       .028316                    
P 14 -20281.603664  13607.024090 -10222.212207     44.701828                    
V 14   7086.346371 -11178.083208 -28773.833504       .023575                    
P 16  -5152.932370  19839.678080  16873.087143    178.677647                    
V 16  -9094.684024 -19392.971635  20270.213200       .021308                    
P 17  20456.899308 -12238.347398 -11546.916107     53.067484                    
V 17  -7387.139942  13004.660552 -26963.301703      -.012476                    
P 18 -16922.718244  -9500.486690 -18122.129660   -233.576891                    
V 18  -6074.673817 -22490.985942  16958.594704       .018911                    
P 19  -1793.448973  19924.712675 -17304.091500     68.607820                    
V 19 -16413.662320  15093.295553  19120.490187       .023660                    
P 20  13746.336694  21789.751038   6432.170489    -30.436117                    
V 20    331.395039   8819.118469 -30073.526375      -.005943                    
P 21 -26085.112211  -6258.423002   1917.815779     77.927340                    
V 21   2736.904770  -2545.349564  30743.176029      -.002803                    
P 22 -14344.431104   5640.670872 -21466.962979    199.308784                    
V 22  -8905.508336 -26218.256119   -975.336666       .010266                    
P 23   8133.499762  13242.359941  21433.995551    206.585866                    
V 23 -17675.555267  20936.599693  -6430.856218       .037309                    
P 24 -19691.150921 -12910.951709  12195.365823     34.749231                    
V 24  15519.500912    521.160872  26314.186295       .029506                    
P 25  23872.954007   7635.309571   8914.764474    451.806146                    
V 25 -10997.152832   1968.412001  29089.806245       .085610                    
P 26   4300.872279 -20820.279871 -16003.161609     46.363438                    
V 26  14008.759179 -13866.444626  22975.632508       .131119                    
P 27  26303.310974   4080.915026   2370.544557    138.473669                    
V 27  -2418.651645   2227.775075  31545.147450       .024351                    
P 28  15271.323085  -1536.568633 -21363.177030     -7.842492                    
V 28   9198.394758  26348.482691   4267.360607      -.006059                    
P 29   8186.924189 -22159.112799 -11529.762170      5.842414                    
V 29  10992.609806 -10466.425105  27831.860692       .001108                    
P 30 -17030.138616 -15204.493667  13332.941102     47.481207                    
V 30  -4559.868047 -17054.885998 -24563.734819       .013956                    
P 31 -18266.296513   9280.249545  17138.206114      7.701676                    
V 31 -20871.314221  -4747.831724 -19832.776377      -.013692                    
P 32  -8010.939561  17023.044706 -18332.236490     81.848958                    
V 32  -8152.051511 -22803.286454 -17043.948726       .157404                    
EOF
